X,Y,type,name,longitude,latitude
-300278.1816,7128291.88,police,Fulwood Police Station,-2.6974448001889724,53.778361598586926
-179312.8346,7356650.205,police,Market Street Police Station,-1.6107945995997575,54.97311590180083
-172623.4795,6579003.404,police,Lymington Police Station,-1.5507031003274288,50.760304600115546
-36760.01131,6674471.748,police,Leatherhead,-0.3302208000417947,51.299657099558566
-233404.222,6780950.626,police,Gloucestershire Constabulary,-2.0967058000062586,51.89382640218853
-332636.2417,7057627.051,police,Merseyside Police Headquarters,-2.988122199711853,53.401577199494426
-165823.7733,6761656.406,police,Witney Police Station,-1.489620300257606,51.7867379026376
12479.49378,6844557.785,police,Histon Sector Police Station,0.11210520000648501,52.245062600844925
-322820.8349,7048921.905,police,Garston Police Station,-2.8999489002289462,53.354928799482636
-128846.611,6782053.215,police,Bicester Police Station,-1.1574487996830245,51.89993839724962
-20853.44681,6663292.562,police,Reigate Police Station,-0.1873296999599648,51.23682409994322
94912.12218,6644583.8,police,Stanhope Police,0.8526101000251343,51.131478599340646
29380.64226,6873062.282,police,Ely Police Station,0.26393079999405916,52.4015677012033
-329822.1629,7054998.177,police,Admiral Street Police Station,-2.962842899744286,53.38749519735754
-220621.6609,6577349.298,police,Gravel Hill,-1.9818780999430419,50.75090430221907
-64252.05161,6663751.008,police,Guildford Divisional Headquarters,-0.577185999972993,51.23940250089291
-108874.8702,6754968.927,police,Thame,-0.9780395995718902,51.74956100177565
125539.5316,6686566.849,police,Herne Bay Police Station,1.1277407999748563,51.367541299253716
128049.2741,6810635.948,police,Ipswich Police Station,1.1502862004443997,52.058091401941496
46264.69207,6732130.332,police,Billericay Police Station,0.41560280001564215,51.622366200603615
-175370.9669,7318211.158,police,University Police Station,-1.5753841995708868,54.77443560137127
-8779.523336,6762944.044,police,Hertford Police Station,-0.0788678000001281,51.793892599198195
-22660.24007,6696117.558,police,Wimbledon Police Station,-0.20356039996698613,51.42107400110348
-17806.92178,6696209.868,police,Tooting Police Station,-0.15996229998094794,51.421591102475105
-39414.20192,6766892.082,police,Harpenden Police Station,-0.3540637999610899,51.81582260187666
-52160.68437,6735224.077,police,Rickmansworth Police Station,-0.4685673999970523,51.639617097649406
-271506.6796,7000993.081,police,Crewe Police Station,-2.4389860002522186,53.09717580258747
-9613.64028,6724720.27,police,St. Anns Police Station,-0.08636079999551075,51.58102059727905
-1101.484098,6706283.136,police,Greenwich Police Station,-0.009894800004480047,51.47798430062371
-8240.091347,6859576.853,police,St Ives Police Station,-0.07402199999551114,52.32759440153623
-123970.1272,6920334.464,police,Belgrave Police Station,-1.1136426003800122,52.65989849999286
-128155.3393,6915163.343,police,Hinckley Road Police Station,-1.1512390003471318,52.63171360106398
-122896.562,6906235.803,police,Wigston Police Station,-1.1039986001034239,52.583011797529956
-14430.30106,6697772.365,police,Streatham Police Station,-0.1296295999664413,51.43034299723579
-129.4645678,6733834.097,police,Chingford Police Station,-0.0011630000000666804,51.631867302197676
-8469.698929,6671407.387,police,Caterham Police Station,-0.07608459999811441,51.28244229979956
-399113.2694,7274561.518,police,Whitehaven Police Station,-3.585295499969321,54.5476342023638
-44563.96402,7120908.791,police,Pickering Road Police Station,-0.4003249000011843,53.739152100920144
-44957.07767,6700676.365,police,Feltham Police Station,-0.4038563000030944,51.44660449757094
-22630.16155,6710487.428,police,Parks Police,-0.2032902000245892,51.50150059797637
-210746.097,6879727.715,police,Kings Heath Police Station,-1.8931644000363521,52.4380847006543
-22074.5437,6737538.615,police,Barnet Police Station,-0.19829899995674288,51.65251880263851
-3867.728916,6746673.487,police,Cheshunt Police Station,-0.034744400000738286,51.7034026005531
-310624.972,6600292.3,police,Crewkerne Police Station,-2.790391599767984,50.88112109934858
-49109.6175,7141381.384,police,Beverley Police Station,-0.4411591999751352,53.84778630145636
-193205.5628,7137283.873,police,Eccleshill Police Station,-1.7355951004015406,53.82606610109259
-109149.2171,6712952.322,police,Sonning Common Police Office,-0.9805040997060982,51.51528210225982
-176016.364,7320730.027,police,Durham Constabulary HQ,-1.581181900363451,54.78748490087191
-25474.1185,6711315.141,police,Shepherd's Bush,-0.22883789998021856,51.506128900919755
-20998.52951,6860461.889,police,Huntingdon Police Station,-0.18863300002867806,52.332452997466476
-559.424969,6584652.566,police,Peacehaven Police Station,-0.005025399999707895,50.79239460029666
127316.7918,6859230.541,police,Eye Police Station,1.1437061999900295,52.32569310188651
-318112.41,7184111.882,police,Morecambe Police Station,-2.8576523997109566,54.07362260263395
-30588.77043,6711748.712,police,Acton Police Station,-0.27478359999692265,51.50855310187981
-26507.49734,6757912.531,police,Hatfield Police Station And Magistrates Court,-0.2381209000427956,51.76592879948244
8924.027167,6720981.24,police,Ilford Police Station,0.08016590000013933,51.56014380103838
-58289.25648,6779359.369,police,Dunstable Police Station,-0.5236212999594686,51.885004101974765
2546.121657,6730242.461,police,Woodford Police Station,0.022872199997108218,51.61183610186207
-214649.9714,6891693.709,police,Handsworth Police Station,-1.9282335004443818,52.503565299208546
-101554.4783,6680000.643,police,Bramshill Police Staff College,-0.9122794002767427,51.33070069812998
-18726.777,6715986.533,police,St. John's Wood Police Station,-0.16822550001397918,51.53224099927418
-16030.91949,6714968.091,police,Albany Street Police Station,-0.14400819996356523,51.526549398942336
-124490.1673,6913983.025,police,Campus Park Police Office,-1.1183142000818624,52.6252777990255
-8904.746631,6713383.225,police,Bishopsgate Police Station,-0.07999269999839116,51.517690902157014
-194931.2932,7130114.786,police,West Yorkshire Police,-1.7510976003474372,53.78803690250577
-198375.0395,6574694.163,police,Christchurch Police Station,-1.782033299706638,50.73581120051965
-43327.49391,6732757.58,police,Oxhey Police Station,-0.3892175000194848,51.62586430114406
46909.34324,6722737.834,police,Laindon Police Station,0.4213938000050075,51.56995290115171
53986.46873,6672973.156,police,Coldharbour,0.48496869995799613,51.29123919767866
60371.09794,6665438.592,police,Kent Police Headquarters,0.5423227999857856,51.248892598749066
-198748.561,7102882.143,police,Huddersfield Police Station,-1.7853887004306102,53.64326380250246
-329450.879,7058073.254,police,Smithdown Lane Police Station,-2.959507599723111,53.40396689778025
141448.6898,6812285.987,police,Suffolk Constabulary Headquarters,1.2706551996602105,52.06720429960174
-300576.2173,7111740.155,police,Leyland Police Station,-2.7001221004342053,53.69040909873401
-141845.3323,6598945.616,police,Park Gate Police Station,-1.2742182998610243,50.87348780066648
-220788.8628,6684601.314,police,Wiltshire Police Headquarters,-1.9833801001660805,51.356516501113234
-408029.0812,6584582.425,police,Crediton Police Station,-3.665387600072053,50.79199630013724
-60026.37487,7024950.569,police,British Transport Police,-0.5392260999600895,53.22620899781349
-275065.419,7198709.164,police,Ingleton Local Area Police Office,-2.470954700204402,54.15049100262417
-444817.6571,6575388.056,police,Okehampton Police Station,-3.9958650001916634,50.739756101412766
-172114.9943,7131408.99,police,British Transport Police,-1.5461353000583429,53.79490469959323
-275782.528,7054094.701,police,Lymm Police Station (Unmanned),-2.4773965999551986,53.382654501584334
-22665.62794,7121022.941,police,Hedon Policing Team,-0.2036088000266846,53.73975859791859
-273957.7678,7356384.265,police,Haltwhistle Police House,-2.4610045001800684,54.97174469787278
7068.898985,6708472.016,police,Old Police Station (CLOSED),0.06350100000122472,51.490229101102706
-130887.2977,6912720.15,police,Braunstone Police Station,-1.1757806002101188,52.61839079852928
-156005.4053,6913685.195,police,Market Bosworth Police Station,-1.4014203998625059,52.62365370158977
-172849.4024,7132437.487,police,Bridewell Police Station,-1.5527326002684547,53.800361699401726
-133156.0,6758271.657,police,Barton Neighbourhood Police Office,-1.1961606997221899,51.76792529984441
-11218.35527,6718466.57,police,"Canonbury, Mildmay & Highbury East Ward",-0.1007762000172378,51.54609780080399
-232097.4536,6889200.804,police,West Midlands Police,-2.0849668997410147,52.48993159841371
-12895.97339,6725423.859,police,Hornsey Police Station,-0.11584649999835638,51.58494800008196
-249307.4246,7043536.303,police,Wilmslow Police Station,-2.2395666996265517,53.32604330055392
-12334.63373,6710656.941,police,British Transport Police,-0.11080390003675182,51.50244849803345
-95465.69174,7122386.269,police,Humberside Police,-0.8575828999908475,53.7470014986618
-60572.28566,6666918.318,police,Burpham,-0.5441301000243172,51.25721219979154
3860.070135,6693365.222,police,Police Bickley Ward,0.034675600000438046,51.40565330080145
-253566.9202,6862462.06,police,Stourport Police Station,-2.27783039962775,52.343431401649525
-154460.6915,7113369.712,police,Normanton Police Station,-1.3875439997012025,53.69907640136424
-100691.9971,6716711.935,police,Henley Police Station,-0.9045315998344852,51.53629450097364
-142808.2904,7041871.029,police,South Yorkshire Police,-1.2828686996529912,53.31710769764979
-74798.62715,6584068.563,police,Bognor Regis Police Station,-0.671927500000024,50.78907819835452
45990.01122,6939773.421,police,North Lynn Police Station,0.4131352999575428,52.76568700194215
-131287.0014,6556492.832,police,Shanklin Police,-1.17937119963841,50.63221480260737
-197987.0354,7138214.88,police,Shipley Police Station,-1.7785477995733274,53.83100219796529
17545.23192,6776897.66,police,Bishop's Stortford Police station,0.15761149997157695,51.8713524005753
-222867.732,6929242.84,police,Hednesford Police Post,-2.0020548999265335,52.708410502164305
-231587.4879,6909155.833,police,Wednesfield,-2.0803857999141475,52.59894719952756
-198107.5833,6853454.426,police,Ex Police Station,-1.7796306997837126,52.29396940241175
81719.17065,6807844.87,police,Sudbury Police Station,0.734095800004664,52.042672498201014
-87027.84132,7157247.59,police,Humberside Police,-0.7817844000168443,53.93178410010557
-256296.9528,7094005.872,police,Bury Police Station,-2.302354699734996,53.595968402640615
-170706.3463,6852372.318,police,Leamington Police Station,-1.5334811997748992,52.28802369757893
-96989.51085,7114400.266,police,Goole North,-0.8712715999583116,53.70455680026377
-280139.7287,6927323.228,police,Wellington Station,-2.5165379998030613,52.69796149923535
-280621.7532,7231681.676,police,Sedbergh Police Station,-2.520868099559762,54.3235980987441
-17117.08603,6726482.043,police,Muswell Hill Police Station,-0.1537654000033774,51.590854097395734
-333313.7989,6582614.548,police,Axminster Police Station,-2.994208799598105,50.78082020117307
-289991.2588,7097236.861,police,Adlington,-2.6050358004109966,53.61319020262449
-217735.8367,6913056.561,police,Autumn Close Police Room,-1.9559543000816222,52.62022549827327
-201021.0927,6727501.192,police,North Swindon Police Point,-1.8058032000281719,51.596541600827294
-105776.9935,6997874.44,police,Southwell Police Station,-0.9502108996926126,53.080350499476225
53605.35533,6606947.876,police,Battle Police Station,0.48154510003596845,50.91882799799705
-166202.4488,6619288.99,police,Romsey Police Station,-1.4930220001513224,50.98866529775297
-243531.713,6667615.036,police,Westbury Police Station,-2.187682599557087,51.261128900923865
-215699.0574,6918474.048,police,Brownhills Police Station,-1.9376576003259396,52.64976050102831
-331556.2423,7059934.034,police,St Annes,-2.9784204000332535,53.41393110053253
56767.04037,6722163.614,police,Pitsea Police Station,0.509946999986009,51.56674659820703
-172044.6849,7137652.294,police,Stainbeck Police Station,-1.5455036999719705,53.82801949831802
-60829.62292,6709524.049,police,Langley Poloce Station,-0.5464417999626315,51.49611310272896
-86467.36995,6723432.009,police,Marlow Police Station,-0.7767496000370201,51.573828701341014
-42855.49927,6727363.082,police,Pinner Police Station,-0.3849775000281399,51.595770900384366
-230151.3106,6886434.988,police,Old Hill Police Station,-2.067484399721192,52.47480039972982
-94205.91133,6670472.347,police,Fleet Police Station,-0.846266100021474,51.27718819802261
97259.9059,6776766.767,police,Shrub End,0.8737006000199642,51.87062640174006
48891.64281,6725735.955,police,Laindon Traffic Police HQ,0.43920110001935303,51.586689997525305
-16430.38949,6944218.024,police,Spalding Police Station,-0.1475967000290375,52.78983889788009
-156035.7844,6598564.249,police,Hythe Police Station,-1.401693299960984,50.87132590213446
-319553.7859,7128895.833,police,Kirkham Police Station,-2.8706004997222725,53.78156740257531
-65653.48608,7018303.654,police,North Hykeham Police Office,-0.5897753000139225,53.19044809996954
-15019.1923,6715206.049,police,British Transport Police,-0.1349196999822023,51.527879299623834
-66515.78912,6711501.0,police,Slough Police Station,-0.5975215000176697,51.5071680996075
-260497.2153,6983514.622,police,Madeley Police Station,-2.340086299745636,53.00279329998816
-109531.9001,6584131.005,police,Hayling Island,-0.9839417995848253,50.789432801551094
-218872.2194,6748907.432,police,Cirencester Police Station,-1.9661625995618122,51.71583760066572
-253975.485,6768833.175,police,Gloucester South Police Station,-2.2815005996716824,51.82660079872914
-309777.4745,7075344.108,police,Rainford Police Station,-2.782778400192953,53.49636010060031
-340278.2023,7086927.658,police,Formby Police Station,-3.056771099788045,53.558215597549164
-261633.9432,7056298.038,police,Altrincham Police Station,-2.3502977002101875,53.39445870199908
-47596.09544,6723838.855,police,Ruislip Police Station,-0.42756299998163455,51.57610009858899
-266424.9559,7146184.943,police,Clitheroe Police Station,-2.3933360995583945,53.87323479825431
-48327.21959,7171509.455,police,Driffield Police Station,-0.4341307999669735,54.00714429987344
-46890.84194,6778189.433,police,Luton HQ,-0.4212275999993467,51.878516598967984
-42750.15763,6991855.285,police,Ruskington Community Police Box,-0.38403119997547774,53.04785810260553
-262063.6587,7066778.869,police,Urmston Police Station,-2.354157900224918,53.45056410231192
5610.045926,6882444.28,police,Chatteris Police Station,0.050395899999382536,52.45295890123897
-279423.4212,7075143.412,police,GMP Divisional HQ Leigh,-2.510103300049267,53.49528759917359
-14944.04051,6613537.823,police,Burgess Hill Police Station,-0.1342445999663429,50.95613299730597
48436.85816,6673366.742,police,East Malling Neighbourhood Safety Office,0.4351156999985736,51.29345020127469
-11013.46061,6678992.58,police,Kenley Police Station,-0.09893559997011307,51.3250421992678
-305850.0004,6643095.673,police,Street Police Station,-2.747497300072818,51.12308889888229
-164705.0903,6657758.603,police,Andover Police Station,-1.4795709998877593,51.20568849791896
-277507.3233,7081049.414,police,Atherton Police Station,-2.4928906997548737,53.52683739896532
-95913.26289,6688647.411,police,Thames Valley Police (Finchampstead Base),-0.861603500038607,51.379208399239545
-144822.8838,7273133.905,police,Thornaby Police Station,-1.3009661000780544,54.54019500163529
-25553.72307,6702224.856,police,West Putney Ward Metropolitain Police,-0.22955299999938616,51.45527320095103
-141547.7085,7147978.573,police,Tadcaster Police Station,-1.271544699776447,53.88273319823903
-293722.7994,6610261.974,police,Yeovil Police Station,-2.638556799953922,50.937592500278846
-99582.6316,6843974.996,police,Campbell Square Police Station,-0.8945659999912362,52.241856997842696
-48426.30507,6714701.012,police,Hayes Police Station,-0.43502089997815674,51.52505670042556
-532891.7569,6505306.522,police,St Austell Police Station,-4.7870481000457445,50.339650998744055
-14247.43654,6901478.393,police,Whittlesey Police Station,-0.1279869000340495,52.55703689746162
-220250.8446,6873659.896,police,Longbridge Police Station,-1.9785470004441357,52.40484300187229
-216767.6577,6892112.435,police,Handsworth West Police Station,-1.9472570001469869,52.5058548976112
-172632.5409,6660042.572,police,Weyhill,-1.550784500268584,51.218541298965185
-133472.4146,6983276.31,police,Bulwell Police Station,-1.1990031004351756,53.00150500265912
-420506.6714,6496380.049,police,Kingsbridge Police Station,-3.777475699928452,50.2884447022289
-178233.5477,7353885.245,police,Gateshead Police Station,-1.6010992004175577,54.95885730114027
8955.875673,6726035.217,police,Barkingside Police Station,0.08045199999730106,51.588360297890155
61729.9527,6778352.88,police,Braintree Police Station,0.5545295999838512,51.87942299788745
-18195.05945,6706780.966,police,Park Police,-0.16344899999398332,51.48076949730631
-6249.331498,6969702.74,police,Kirton Police Station,-0.05613870000182944,52.92806380210108
-243246.9912,7154310.219,police,Barnoldswick Police Station,-2.185124900110467,53.91624600046887
-12896.47433,7021247.985,police,Horncastle Police Station,-0.11585100001894064,53.206292502158526
-321007.24,7072510.866,police,Kirkby Police Station,-2.883657100050234,53.48121699769214
-397711.7904,6522930.423,police,Paignton Police Station,-3.5727057999085954,50.440587798847844
-125016.33,6911406.234,police,Welford Road Police Station,-1.1230408000352985,52.611224299288715
-18280.41924,6651619.315,police,CLOSED,-0.16421580003404565,51.171122501136615
-150673.5468,7266969.442,police,Yarm Police Station,-1.3535235000293802,54.508056801017155
-149592.334,7214345.335,police,Thirsk Police Station,-1.3438108001931235,54.232672097996215
9469.236637,6729555.538,police,Limes Farm Police Office,0.08506359999961637,51.60800400129695
-212271.6082,7030755.509,police,'B' Divisional Headquarters,-1.9068683003069071,53.257415598037234
-91201.64317,6681530.925,police,Yateley,-0.8192782999642576,51.3392892027635
-249024.2946,6998693.625,police,Kidsgrove Town Hall Police Enquiry Office,-2.237023299562624,53.08477070126046
-185618.1153,7351180.592,police,Whickham Police Station,-1.6674358998344958,54.944904799898595
-57097.21398,6784178.018,police,Houghton Regis Police Station,-0.512912999988768,51.91171449878843
-113316.9409,7020394.7,police,Ollerton Police Station,-1.0179433996013854,53.20170130089895
-82472.99285,6618631.683,police,Midhurst Police Station,-0.74086750004235,50.98494829986934
-155424.351,7079961.493,police,Wombwell Police Station,-1.3962007002765722,53.521027501289154
-270079.9645,7060660.727,police,Partington Police Station,-2.4261696004480773,53.41782180075445
-207595.2099,7118501.002,police,Halifax Police Station,-1.8648594996317016,53.726357097787414
-36775.15076,6601483.528,police,Steyning Police Station,-0.3303568000350763,50.88787219735945
-337370.181,7123567.901,police,St Anne's Police Station,-3.0306478999846935,53.75327810009697
-346451.0128,7057420.735,police,Chadwick street,-3.1122223999692795,53.40047220190477
-337636.9916,7054533.987,police,Red Light Camera 30mph,-3.0330447003841448,53.385008202173175
-193813.3115,7043985.09,police,Hope Valley Police Station,-1.741054599862678,53.328451102169005
-231496.1057,6948735.656,police,Staffordshire Police HQ,-2.0795648996445824,52.81437389981605
-136076.478,7271989.5,police,Cleveland Police HQ,-1.222395799965538,54.53423060036061
-480153.0461,6533757.737,police,Callington Police Station,-4.313288200281751,50.50249219954704
-249216.2651,6775859.966,police,British Transport Police,-2.238747799905125,51.86559650252952
-19155.47949,7002662.641,police,Coningsby,-0.17207660000505015,53.10618050135482
-148618.7003,6597962.501,police,Police Training College,-1.335064499854685,50.86791450079368
-243451.1623,6838162.615,police,West Mercia Constabulary,-2.186959000307522,52.20987360096202
-146314.3646,6624550.018,police,Twyford Police Annexe,-1.3143643000641625,51.01840510116468
-140517.48,6982707.574,police,Kimberley Police Station,-1.2622899996995918,52.99843030187834
-144611.31,6740708.064,police,Thames Valley Police,-1.2990655002954619,51.67017999950525
-108175.1716,6648008.564,police,Alton Police Station,-0.9717541001053197,51.15078080222474
-245215.4092,6678231.569,police,Trowbridge Police Station,-2.202807499859827,51.32076999987649
-240070.4673,6948152.925,police,Central Motorway Police Group,-2.1565897004130576,52.81120989856161
-192114.8878,7127782.745,police,"West Yorkshire Police, Data center",-1.7257974001764698,53.77565890166427
-336890.0155,7055247.344,police,The Pyramids,-3.026334499909124,53.38883010184445
-242254.3219,7072083.81,police,Greater Manchester Police Training Unit,-2.176207600067805,53.47893400122956
-15997.73515,6685029.634,police,Wallington Police Station,-0.14371009996541104,51.358919198613584
-330808.6985,7155964.703,police,Preesall Police Station,-2.971705099822366,53.92499859822855
-208514.2303,6838949.012,police,Alcester,-1.873115200349078,52.21420220237828
-176946.0598,6757594.287,police,Community Police Station,-1.589533499830668,51.76415950190066
-67312.1131,7022871.508,police,Birchwood Police Station,-0.6046750000411186,53.21502670226928
-160009.0219,7360500.63,police,South Shields Police Station,-1.4373854996978521,54.99296369777832
-135553.5881,7020306.258,police,Shirebrook Police Station,-1.2176986000747207,53.20122540008423
-235363.9348,7067578.443,police,Denton Police Station,-2.114310199613505,53.454841298058646
-279392.6525,6834252.661,police,Bromyard Police Station,-2.5098269001144424,52.1883455979196
-12372.24858,7088970.69,police,Cromwell Road Police Station,-0.11114179998340044,53.56911590196862
-312156.4388,6898089.819,police,West Mercia Police,-2.8041490001036,52.53852629836283
123732.794,6939204.311,police,Reepham Police Station,1.111510599970122,52.762593500097886
-89576.57898,6765972.61,police,Aylesbury Police Station,-0.8046800999687345,51.81071620191209
-157458.6479,7312809.524,police,Wheatley Hill Police Station,-1.4144751002536418,54.746437599053934
-175656.6907,7272033.34,police,Cockerton Police Section Office,-1.5779509001366538,54.534459101395306
-45708.02782,7215769.223,police,Eastfield Police Station,-0.4106021999766629,54.240147699551066
-45292.89518,7223599.424,police,Scarborough Northway Police Station,-0.406873000022174,54.28123310188389
-56419.7013,6713852.453,police,Iver Police Station,-0.5068268000324803,51.52031379855451
-145564.1491,6996441.746,police,Tin Hat Centre,-1.307624999563829,53.07261880224475
69099.21394,6735995.254,police,South Woodham Ferrers Police Station,0.620728800029467,51.643916202759996
-134116.3533,6989620.385,police,Hucknall Police Station,-1.204787700197636,53.03578750151104
-37143.22865,6724169.699,police,Harrow Central Police Station,-0.333663299978411,51.5779470974674
-242826.1924,6897671.148,police,Wombourne Police Station,-2.181344800174676,52.53623870265987
-118018.7757,7217193.178,police,Helmsley Police Office,-1.0601807002438357,54.24762229863061
-203108.3888,7155778.418,police,Ilkley Police Station,-1.8245536999193022,53.924013199755706
-247091.6658,6745133.527,police,Nailsworth Police Station,-2.219662199666928,51.69482859826867
-496937.2423,6525825.511,police,Liskeard Police Station,-4.4640632000629585,50.457148198562756
-99414.04936,7275874.909,police,Loftus Police Station,-0.8930515999630053,54.554477001655805
-14388.60078,6733985.606,police,Southgate Police Station,-0.12925499997768067,51.632712100786236
-147137.2605,6796701.204,police,Deddington Police Office,-1.3217564997062554,51.98105789915166
-176051.6522,7109489.677,police,Ossett Police Station,-1.5814988996575416,53.67843630159904
-150960.2947,6605936.49,police,Bitterne Police Station,-1.3560994002419717,50.913099998664244
-335093.4748,7156412.967,police,Fleetwood Police Station,-3.010195900215597,53.92736970111831
-129553.9128,6573185.228,police,Ryde Police Station,-1.163802599857277,50.7272314988489
-189422.9042,7096440.576,police,Police station (part time),-1.7016149000516787,53.60894650071665
-466908.4757,6511434.197,police,Torpoint Police Station,-4.194310200062581,50.374770201562754
-145539.7813,6996250.238,police,Police Contact Point,-1.3074060998920252,53.07158520219261
-192204.0547,6695656.06,police,Marlborough Police Station,-1.7265984000675454,51.41848869779706
-126481.1386,6754552.734,police,Community Police Station,-1.1361993995721957,51.747246297743104
-241089.664,7143015.797,police,Colne police station,-2.1657453001443994,53.85644690064761
-40887.12577,6686555.687,police,Esher Police Station,-0.36729530002908156,51.36747869845021
-329341.708,7120588.764,police,Lytham Police Station,-2.9585268999442844,53.73745170020307
-130494.2397,7280019.674,police,South Bank Police Station.,-1.1722497001206642,54.5760638025949
-72356.7562,7092664.094,police,Scunthorpe Police Station,-0.6499918000376994,53.58881440104645
-58285.56068,7025535.306,police,Abbey Neighbourhood Office,-0.5235881000231981,53.229353498309955
-402180.8116,6538179.936,police,Newton Abbot Police Station,-3.6128517003987373,50.52775249891638
-326450.6518,7340673.972,police,British Transport Police,-2.9325561002272,54.89065830207945
-104642.1247,6666171.058,police,Odiham Poice Station,-0.940016199807509,51.25301099858013
-164214.7836,7331177.492,police,Houghton Police Station,-1.475166499862597,54.84156429809435
28809.43969,6779921.232,police,Stansted Airport Police Station,0.25879960000446567,51.888119399379185
-241013.6996,6797789.419,police,Tewkesbury Police Station,-2.1650629003287096,51.98707850224486
10636.6998,6707830.975,police,Plumstead Police Station,0.09555110002931057,51.48664339794723
-10651.72793,6710146.714,police,Overseas Visitors Records Office,-0.09568610001801792,51.499595299090444
21293.04748,6713887.93,police,Rainham Police Station,0.19127869996766658,51.52051210217975
7295.411885,6711564.51,police,Security Office,0.06553580000242708,51.507523199435006
-24160.48172,6761748.652,police,Hertfordshire Constabulary Headquarters,-0.21703730000766303,51.78725050069428
-271860.1635,6931163.223,police,Donnington Police Station,-2.4421614001528207,52.71886119876836
-22549.53284,7098354.95,police,Immingham Police Station,-0.20256589999927077,53.61914819908909
160185.1628,6882168.403,police,Bungay Police Station,1.4389678003241377,52.45144860149606
-91333.42319,6811324.701,police,Wolverton Police Station,-0.8204621000253334,52.06189549908082
-54670.64946,6687154.241,police,Addlestone Police,-0.4911148000265866,51.37083549951935
-335296.2766,6671983.242,police,Police Beat Post,-3.0120176997814663,51.28567779901382
-131509.095,6963882.968,police,Clifton Police Station,-1.1813663003922612,52.8965371022924
-344974.6603,7053607.422,police,Upton Police Station,-3.0989600998142985,53.380043501606345
-29499.03054,6680401.445,police,Epsom Police Counter (in Town Hall),-0.26499430000790536,51.33295030168012
-263121.461,6744538.313,police,Dursley Police Station,-2.3636602999615857,51.69151420272084
-176528.5672,6738411.861,police,Faringdon Police Station,-1.5857830999948002,51.65738549935452
-135524.979,6969548.158,police,Beeston Police Station,-1.2174416001567716,52.92722670163366
-411080.059,6522056.593,police,Totnes Police,-3.6927949999645464,50.43558820268302
-386729.31,6656818.638,police,Minehead Police Station,-3.4740484998999643,51.200397899326546
-127699.3858,6979225.585,police,Safer Sherwood,-1.1471431003681538,52.97960119735102
-190890.8855,6734028.29,police,Highworth police station,-1.7148020004375955,51.632950099535876
-512.6707829,6717037.729,police,Stratford Safer Neighbourhood Team,-0.004605400000005909,51.538114900317474
-338478.6671,7061479.581,police,Wallasey Police Station,-3.0406056000433344,53.42220550266341
-31925.90676,7209777.116,police,Filey Police Office,-0.2867953000188275,54.20867919741983
69451.81842,6881349.632,police,Brandon Police Station,0.6238962999657971,52.44696590172466
-101110.948,6675198.329,police,Hartley Wintney Police Station,-0.9082950998021415,51.30373790006173
-215085.1526,6882112.783,police,West Midlands police room,-1.9321427996775964,52.45114410129317
-331209.5155,7044411.626,police,Bromborough Police Station,-2.975305700194715,53.33073939828069
-334648.297,7048018.298,police,Bebington Police Station,-3.00619679999669,53.350083699067554
-149706.8483,6903152.028,police,Barwell Neighbourhood Team,-1.344839499652526,52.56617650228274
-335442.4502,7056088.507,police,Birkenhead Police Station,-3.0133307995716145,53.393336297386476
-340255.9384,7057523.463,police,Merseyside Police Laird Street,-3.056571099771504,53.401022401270964
-455576.3519,6508750.975,police,Plymstock Fire Station,-4.092511999951836,50.359395198099975
-281484.3346,7061468.671,police,Risley Police Station,-2.528616800113934,53.42214709938841
16426.04803,6707351.135,police,Belvedere Police Station,0.14755770003030358,51.4839591981807
-108340.2361,6704377.89,police,Church House,-0.9732368997374753,51.46732349878596
-229023.0208,7073103.658,police,Stalybridge Police Post,-2.0573487999986306,53.484385797772354
-128366.5123,7021244.844,police,Warsop Town Hall,-1.1531359996820654,53.20627560253701
-248006.8568,6985387.129,police,Newcastle Police Station,-2.2278835002988147,53.01291459883727
145552.6832,6914221.595,police,British Transport Police Norwich,1.3075219996316667,52.626578702151285
-18376.3989,6656789.574,police,Salfords Custody,-0.16507799998947162,51.20023430274449
-153358.6174,7270012.647,police,Police Tactical Training Centre,-1.3776438996185798,54.52392559951193
-120822.9693,7162149.001,police,North Street Police Station,-1.085371199948937,53.95769869923437
-3837.383223,6742197.349,police,Safer Neighbourhoods Station,-0.034471800002447296,51.67847640099248
77225.59242,6718064.968,police,Westcliff Police Station,0.6937292999607065,51.543854201523985
-10208.21994,6712076.364,police,City of London Police,-0.09170199995755664,51.5103849983734
-211561.4009,6718299.526,police,Royal Wootton Bassett Police Station,-1.900488399582075,51.54516460226026
-40906.77366,6718967.347,police,Metropolitan Police ward office,-0.36747180002795854,51.54889529851873
-18560.8219,6923384.476,police,Crowland Police Station,-0.16673469998590335,52.67651390024535
-17679.65021,6737474.955,police,Colindale,-0.15881900001529906,51.65216399796787
-32913.34404,6903906.171,police,Thorpe Wood Police Station,-0.2956656000261616,52.57029420264835
-297484.9195,7098293.055,police,Coppull Police Station,-2.672352499819155,53.61881839921615
-461288.1884,6542035.91,police,Tavistock Police Station,-4.143822300235253,50.54976740071643
-253426.1456,7182966.887,police,Settle Police Station,-2.276565799879792,54.06758709919021
-33472.02317,6703800.121,police,Richmond Police Station,-0.3006843000401375,51.46409010069089
22273.05975,6719076.439,police,Elm Park Ward,0.20008229997532329,51.549504697900986
-164533.0126,7046919.677,police,Woodseats Police Station - No Public Desk,-1.4780251996080978,53.34419220042488
-155798.3845,7056588.017,police,South Yorkshire Police Command Centre,-1.3995607003747992,53.39601199738839
-562782.9549,6492468.308,police,Truro Police Station,-5.0555653002861725,50.265987801000506
-152900.3596,6899212.412,police,Hinckley Police Station,-1.37352729976051,52.544659497564986
-222108.444,7151376.189,police,Crosshills Police Station,-1.995234099772048,53.90071979976518
-177599.4607,7225160.549,police,Bedale,-1.5954030999819426,54.28941949775509
-133414.7733,7193453.155,police,Easingwold Police Station,-1.1984852998273106,54.12282959849015
-191795.4342,7242008.114,police,Catterick Garrison Police Station,-1.7229276996619995,54.37766309897957
-222589.5891,7183799.621,police,Grassington Police Station,-1.9995562997441403,54.071976697875975
-211452.6641,6886894.527,police,Britsh Transport Police,-1.8995116002882124,52.47731480164506
-234596.5205,7073065.794,police,Ashton under lyne Police Station,-2.107416399664086,53.48418340089215
-30246.14017,6591930.488,police,Shoreham Police Station,-0.27170570000332417,50.83370430154656
-287279.9835,7051881.078,police,Stockton Heath Police Station,-2.580679999996539,53.370791898365205
-303311.1145,6630800.188,police,Somerton Police Station,-2.7246900999867623,51.053711600454776
-192890.2058,7247749.713,police,Ricmond Police Station,-1.7327622002709995,54.40769299780732
-120763.0349,7283371.605,police,Redcar & Cleveland HQ,-1.0848328000732919,54.5935130003248
-204363.0485,7333471.148,police,Consett Police Station,-1.8358244997680901,54.85342729972254
-154178.8195,7155877.628,police,Wetherby Police Station,-1.3850119004435493,53.92453799736072
-33100.34965,7036316.254,police,Wragby Police Station,-0.29734550000295246,53.28728810198482
-120394.7455,7163045.916,police,Minster Police Office,-1.0815244001032998,53.96243909988114
-205216.5796,6572862.204,police,Boscombe Police Hub,-1.843491900094104,50.72539460216667
-11403.60203,6726287.027,police,Turnpike Parade Safer Neighbourhood Team base,-0.102440299975654,51.589765702177374
-38206.18507,7121518.579,police,Osborne Street Police Station,-0.34321199996280066,53.74239189947461
-180187.7502,7355373.267,police,Northumbria Police,-1.6186541001577037,54.966531499151934
-28343.84592,6717713.0,police,Harlesden Police Station,-0.2546171000066474,51.541887797763884
-80812.15057,6871992.497,police,Kettering Customer Service Centre,-0.725947899995991,52.39570399918647
-99504.88607,6843153.644,police,Northampton One Stop Shop,-0.8938676000125265,52.23733879729768
-18045.59077,6735872.696,police,Safer Neighbourhoods,-0.16210629999657164,51.64323300199502
101201.3506,6843163.388,police,Elmswell,0.909107200175183,52.2373924010639
-211272.1706,6888128.671,police,Birmingham Central Police Station,-1.8978901995908701,52.484066801540465
-11501.11791,6704043.828,police,Coldharbour & Herne Hill Wards,-0.10331630003013767,51.46545399853234
-20816.21044,6699044.773,police,Earlsfield Police Station,-0.18699519995700345,51.43746880045192
7218.723888,6656485.467,police,Edenbridge Station,0.06484690000429096,51.19852249850347
-160617.2048,7363929.919,police,Northumbria Police,-1.4428488996439537,55.01063240210052
-240667.6073,6994803.811,police,Norton Community Police Post,-2.161953900300649,53.063777797373085
-128088.8036,6916572.127,police,Fosse Neighbourhood Police Office,-1.1506412999846356,52.63939389783759
-207575.306,6573296.687,police,British Transport Police,-1.864680699855866,50.72786530088512
63012.39776,6596372.51,police,Hastings Police Station,0.566049999968267,50.8588993975072
-52752.65916,6755759.548,police,Hemel Police Station,-0.4738852000137568,51.75395780243689
-143631.3756,6568458.821,police,Newport Police Station,-1.290262599805917,50.70034729982516
-11852.6092,6699443.421,police,Thurlow Park & Knight's Hill Wards,-0.10647380001055655,51.43970110034566
-335115.9057,7056841.472,police,Mersey Tunnels Police station,-3.0103974004186624,53.397369602660476
-212044.9728,6886872.649,police,British Transport Police,-1.9048323998694818,52.47719509779351
-159080.8845,7234363.2,police,Northallerton Police Station,-1.4290478995760225,54.33764429766183
-192676.8508,6882088.453,police,West Midlands Police,-1.7308455996965662,52.45101090232248
-161160.9449,7370028.78,police,Whitley Bay Police Office,-1.4477334000681403,55.042036302014985
-226163.2342,6925504.403,police,Cannock Police Station,-2.0316588998776286,52.688058800822695
-524.3370655,6643599.354,police,East Grinstead Police Station,-0.004710199999690286,51.125928701272336
-289685.4418,6709062.453,police,Avon & Somerset Police,-2.6022885995585603,51.493531498122366
-164735.8256,7123895.203,police,Rothwell Police Station,-1.4798470997852793,53.755016499390514
-326844.4556,7061716.919,police,Tuebrook Police Station,-2.936093699952043,53.42347599760915
-134249.4023,6549824.458,police,Police,-1.2059828997000042,50.59420320146125
-396876.1261,6709897.674,police,Bridgend Police Headquarters,-3.565198899777765,51.49820259787198
-439274.8481,6732128.144,police,Swansea Police Station,-3.9460730997751114,51.62235399787032
-348948.0426,6711451.924,police,Rumney Police Station,-3.1346536003116983,51.50689370188243
-379211.6822,6827079.821,police,Powys Police,-3.4065165003693463,52.14882519883443
-375126.9804,6845786.313,police,Llandrindod Wells Police Station,-3.3698229997892417,52.25181930171521
-480055.7306,6773901.69,police,Carmarthen Police Station,-4.312414000271434,51.85473229841479
-422968.6689,6739276.695,police,Neath Police Station,-3.7995921997655926,51.6622048000192
-336887.2659,6721032.934,police,Duffryn Police Station,-3.0263097998320725,51.560432498772734
-331999.3829,6726425.996,police,Maindee,-2.982401199773193,51.59054129861993
-400856.566,6966261.004,police,Bala Police Station,-3.6009557997746566,52.909422102481635
-332328.6882,6724565.978,police,Pill Police Station,-2.9853593996145085,51.5801593007504
-365772.8259,6756779.172,police,Rhymney Police Station,-3.2857932002155876,51.75962750240878
-452262.3261,7016605.422,police,Bethesda Police Station,-4.062741599670772,53.18130669823493
-425031.4636,6734308.684,police,Briton Ferry Cop Shop,-3.8181225998357005,51.63451349791107
-317768.7,6757754.352,police,Part Time,-2.85456480024791,51.76504940202707
-449916.2233,6740830.103,police,Gorseinon Police Station,-4.041666199637215,51.67085990273129
-553848.5639,6763604.977,police,Haverfordwest Police Station,-4.975306300390173,51.79756459978679
-585878.4208,6778612.43,police,Gorsaf Heddlu Tyddewi / St David's Police Station,-5.263035400404485,51.8808623005508
-332812.0486,6992138.409,police,Wrexham Police Station,-2.9897014999650895,53.04938700225568
-334520.903,6849567.746,police,Presteigne Police Station,-3.0050524002236383,52.27261010021948
-372095.105,6728132.402,police,British Transport Police,-3.3425871996755814,51.60006379933144
-407086.2496,6729377.852,police,Maesteg Police Station,-3.6569179997057435,51.607012701260544
-384358.9618,6731788.819,police,Tonypandy Police Station,-3.4527552997325124,51.62046150272374
-334051.4242,6737488.807,police,Gwent Police HQ,-3.0008350004075375,51.652241201382054
-333072.5585,6724838.164,police,Newport Central,-2.992041700213434,51.58167870006747
-517373.1186,6795080.125,police,Crymych Police Station,-4.647641800309618,51.97208769895792
-527019.4534,6764223.804,police,Narberth Police Station,-4.734296300175359,51.80100239752125
-497476.1288,6806947.124,police,Heddlu,-4.468904099856516,52.03771190027375
-376444.5579,6743061.957,police,Mountain Ash Police Station,-3.3816589998518616,51.68329219966383
-412938.9832,6758167.128,police,Seven Sisters Police Station,-3.709494000173343,51.76734419762798
-329036.2473,6730399.317,police,Caerleon Police Station,-2.955782899789206,51.612711100665145
-342581.6698,6977596.059,police,Cefn Mawr Police Station,-3.0774635004052704,52.97078659928118
-327864.3648,6725708.203,police,Alway Police Station,-2.945255700179784,51.586535099453236
-306112.6587,6726614.387,police,Caldicot Police Station (Part Time),-2.749856799726726,51.59159270181919
-359485.1893,6744104.895,police,Bargoed Police Station,-3.2293103996278942,51.68910060091008
-425848.326,7348663.264,police,Dalbeattie Police Station,-3.8254605996251256,54.931914300191416
-448370.1849,7530729.183,police,Coatbridge Police station,-4.0277779003916585,55.86067170119878
-488769.6422,7518649.279,police,Barrhead Police Station,-4.390692400018898,55.79972420024048
-354640.4983,7550173.108,police,Gayfield Square Police Office,-3.185789799906531,55.95857289751877
-261128.1631,7514479.545,police,Duns Police Office,-2.3457542002678524,55.77866420025637
-335517.7356,7653413.351,police,Lochee Police Office,-3.0140070998265247,56.474263800776946
-312830.0553,7482857.001,police,Galashiels Police Office,-2.810200200079451,55.6185779013262
-496115.1367,7865779.618,police,Muir of Ord Police Station and Council Service Point,-4.456678099806557,57.51337269778614
-320352.0691,7647680.176,police,Tayport Police Station,-2.877771599718431,56.445808002118994
-574305.6131,7945570.471,police,Ullapool Police Station,-5.159075100033624,57.896326697965534
-430934.6694,7880702.389,police,Nairn Police Station,-3.87115199979013,57.58530219789988
-548548.2421,7549564.943,police,Strathclyde Police,-4.927692699553256,55.95551449812326
-443254.7426,7515629.6,police,Motherwell Police Station,-3.9818251003604437,55.78447389933524
-442401.0223,7506519.476,police,Larkhall Police Station,-3.9741560004219125,55.73842880188185
-303351.7572,7479027.31,police,Melrose Police Station,-2.7250551995727403,55.59914590241865
-401778.3248,7375417.089,police,Loreburn Road Police Station,-3.6092360999577733,55.069760999761904
-500747.7196,7480667.526,police,Kilmarnock Police Station,-4.498293300046765,55.6074696000458
-466631.7354,7856923.832,police,Police Headquarters,-4.191824199650363,57.470619600631075
-487897.543,7534621.458,police,Renfrew Police Office,-4.382858199612614,55.88028930212158
-596662.4742,7671950.324,police,Appin,-5.359910200344296,56.566123601459196
-689560.1143,7844946.038,police,Portree Police Station,-6.194423899948942,57.41271470150403
-454405.7941,7522099.191,police,Uddingston Police Station,-4.081996700324982,55.81714000221064
-352612.4576,7553175.644,police,Leith Police Station,-3.1675716003302674,55.97366880185281
-334438.3373,7391621.595,police,Langholm Police Station,-3.0043106999210982,55.15302309837957
-476407.9801,7531213.15,police,Finnieston Police Station,-4.279645700003388,55.8631115008999
-493668.6349,7882872.279,police,Ross Cromarty & Skye Command Area Headquarters,-4.434700800210898,57.595749497984706
-471604.3994,7519608.914,police,"Castlemilk Police Office, Strathclyde Police",-4.2364944003902725,55.80456939975107
-378346.2176,7556578.543,police,South Queensferry,-3.3987418995889027,55.99077049983974
-526431.7087,7559315.274,police,Helensburgh,-4.729016499703656,56.00451880026125
-435163.3852,7576210.086,police,Bannockburn Police Office,-3.9091392001435077,56.08928370246815
-279189.0714,7770648.701,police,Banchory Police Station,-2.5079980999775637,57.05148330225886
-449173.2771,7900639.885,police,Cromarty Police Station (closed),-4.03499220036983,57.68118180171178
-380234.8085,7565758.576,police,Rosyth Police Station,-3.4157074002980927,56.036868202505794
-502663.105,7525637.766,police,Johnstone Police Office,-4.515499499844758,55.83499529764922
-496706.9223,7524231.48,police,Unused Police Sub Station,-4.461994200300575,55.82790030050803
-492942.1639,7531353.061,police,Glasgow Airport Police,-4.428174800183202,55.863816798984296
-620090.7631,7697948.259,police,Strontian Police Station,-5.570370100340673,56.694581302061174
-480491.6577,7545538.613,police,Milngavie Police Station,-4.316330000038353,55.935260401397564
-346810.9421,7549214.908,police,Portobello Police Station,-3.1154556998832037,55.95375409845063
-457856.4979,7528624.643,police,Baillieston Police Station,-4.112994899970075,55.85006040228971
-357779.1068,7547806.101,police,West End Police Station,-3.2139843997707063,55.94666810210134
-311233.0436,7626373.14,police,Police Scotland,-2.795853999889174,56.339866600408335
-373552.2772,7385141.412,police,Lockerbie Police Station,-3.355677200264122,55.11974739939173
-491708.7551,7527857.208,police,Mill Street Station,-4.417094900417126,55.84619019804486
-328422.0977,7547136.242,police,Tranent Police Station,-2.950265900065047,55.94329840042368
-301277.7082,7808150.139,police,Alford Police Station,-2.7064237004056126,57.23425639936999
-520064.6346,7483480.372,police,Irvine Police Station,-4.67182009991214,55.62173999856344
-361544.3995,7551855.199,police,Drylaw Police Station,-3.2478085995866426,55.96703070220427
-536267.7431,7550664.464,police,Gourock Police Station,-4.81737510007011,55.9610436999565
-359035.7814,7550527.065,police,Police Scotland Edinburgh Office,-3.2252732997741536,55.96035279971642
-486994.831,7540288.052,police,Glasgow North West Police Station,-4.374748999745033,55.90883200213947
